{"type": "FeatureCollection", "features": [ {"type": "Feature", "properties": {"norad_id": 33980, "name": "COSMOS 2251 DEB", "group": "cosmos-2251-debris", "lat": 22.040506867935864, "lon": 69.40859602628643, "alt_km": 717.2887277807868, "timestamp": "2025-12-10T23:33:13.211370+00:00", "meta": {"OBJECT_NAME": "COSMOS 2251 DEB", "OBJECT_ID": "1993-036FP", "EPOCH": "2025-12-10T15:54:25.786944", "MEAN_MOTION": 14.58629947, "ECCENTRICITY": 0.00288108, "INCLINATION": 74.0216, "RA_OF_ASC_NODE": 63.3542, "ARG_OF_PERICENTER": 208.8905, "MEAN_ANOMALY": 301.8306, "EPHEMERIS_TYPE": 0, "CLASSIFICATION_TYPE": "U", "NORAD_CAT_ID": 33980, "ELEMENT_SET_NO": 999, "REV_AT_EPOCH": 88764, "BSTAR": 0.0011665828, "MEAN_MOTION_DOT": 5.439e-05, "MEAN_MOTION_DDOT": 0}, "tle": {"line1": "1 33980U 93036FP  25344.66279846  .00005439  00000+0  11666-2 0  9992", "line2": "2 33980  74.0216  63.3542 0028810 208.8905 301.8306 14.58629947887648"}}, "geometry": {"type": "Point", "coordinates": [69.40859602628643, 22.040506867935864]}}, {"type": "Feature", "properties": {"norad_id": 33982, "name": "COSMOS 2251 DEB", "group": "cosmos-2251-debris", "lat": -45.57196137115422, "lon": -159.77481010007855, "alt_km": 751.9662700082072, "timestamp": "2025-12-10T23:33:13.211379+00:00", "meta": {"OBJECT_NAME": "COSMOS 2251 DEB", "OBJECT_ID": "1993-036FR", "EPOCH": "2025-12-10T11:41:11.573664", "MEAN_MOTION": 14.6019759, "ECCENTRICITY": 0.00750024, "INCLINATION": 74.0709, "RA_OF_ASC_NODE": 4.2276, "ARG_OF_PERICENTER": 49.3807, "MEAN_ANOMALY": 100.3075, "EPHEMERIS_TYPE": 0, "CLASSIFICATION_TYPE": "U", "NORAD_CAT_ID": 33982, "ELEMENT_SET_NO": 999, "REV_AT_EPOCH": 89126, "BSTAR": 0.00055750496, "MEAN_MOTION_DOT": 2.765e-05, "MEAN_MOTION_DDOT": 0}, "tle": {"line1": "1 33982U 93036FR  25344.48693951  .00002765  00000+0  55750-3 0  9993", "line2": "2 33982  74.0709   4.2276 0075002  49.3807 100.3075 14.60197590891264"}}, "geometry": {"type": "Point", "coordinates": [-159.77481010007855, -45.57196137115422]}}, {"type": "Feature", "properties": {"norad_id": 33983, "name": "COSMOS 2251 DEB", "group": "cosmos-2251-debris", "lat": -38.23577049723605, "lon": -16.628268071119724, "alt_km": 716.9085274961944, "timestamp": "2025-12-10T23:33:13.211388+00:00", "meta": {"OBJECT_NAME": "COSMOS 2251 DEB", "OBJECT_ID": "1993-036FS", "EPOCH": "2025-12-10T12:52:20.552736", "MEAN_MOTION": 14.50655309, "ECCENTRICITY": 0.00213487, "INCLINATION": 74.0495, "RA_OF_ASC_NODE": 151.184, "ARG_OF_PERICENTER": 254.3384, "MEAN_ANOMALY": 162.4854, "EPHEMERIS_TYPE": 0, "CLASSIFICATION_TYPE": "U", "NORAD_CAT_ID": 33983, "ELEMENT_SET_NO": 999, "REV_AT_EPOCH": 88597, "BSTAR": 0.00083583534, "MEAN_MOTION_DOT": 3.265e-05, "MEAN_MOTION_DDOT": 0}, "tle": {"line1": "1 33983U 93036FS  25344.53634899  .00003265  00000+0  83584-3 0  9998", "line2": "2 33983  74.0495 151.1840 0021348 254.3384 162.4854 14.50655309885979"}}, "geometry": {"type": "Point", "coordinates": [-16.628268071119724, -38.23577049723605]}}, {"type": "Feature", "properties": {"norad_id": 33984, "name": "COSMOS 2251 DEB", "group": "cosmos-2251-debris", "lat": -44.64243443200291, "lon": -173.051596997742, "alt_km": 666.1628810392167, "timestamp": "2025-12-10T23:33:13.211398+00:00", "meta": {"OBJECT_NAME": "COSMOS 2251 DEB", "OBJECT_ID": "1993-036FT", "EPOCH": "2025-12-10T11:37:09.506784", "MEAN_MOTION": 14.66330931, "ECCENTRICITY": 0.00232538, "INCLINATION": 74.0097, "RA_OF_ASC_NODE": 351.457, "ARG_OF_PERICENTER": 190.2538, "MEAN_ANOMALY": 292.5865, "EPHEMERIS_TYPE": 0, "CLASSIFICATION_TYPE": "U", "NORAD_CAT_ID": 33984, "ELEMENT_SET_NO": 999, "REV_AT_EPOCH": 89033, "BSTAR": 0.0012479331, "MEAN_MOTION_DOT": 6.892e-05, "MEAN_MOTION_DDOT": 0}, "tle": {"line1": "1 33984U 93036FT  25344.48413781  .00006892  00000+0  12479-2 0  9991", "line2": "2 33984  74.0097 351.4570 0023253 190.2538 292.5865 14.66330931890330"}}, "geometry": {"type": "Point", "coordinates": [-173.051596997742, -44.64243443200291]}}, {"type": "Feature", "properties": {"norad_id": 33986, "name": "COSMOS 2251 DEB", "group": "cosmos-2251-debris", "lat": 19.40621000658923, "lon": -48.2737284842529, "alt_km": 719.0302829026214, "timestamp": "2025-12-10T23:33:13.211406+00:00", "meta": {"OBJECT_NAME": "COSMOS 2251 DEB", "OBJECT_ID": "1993-036FV", "EPOCH": "2025-12-10T05:43:57.186912", "MEAN_MOTION": 14.43184431, "ECCENTRICITY": 0.0040333, "INCLINATION": 74.0369, "RA_OF_ASC_NODE": 307.3176, "ARG_OF_PERICENTER": 20.5739, "MEAN_ANOMALY": 103.4184, "EPHEMERIS_TYPE": 0, "CLASSIFICATION_TYPE": "U", "NORAD_CAT_ID": 33986, "ELEMENT_SET_NO": 999, "REV_AT_EPOCH": 87992, "BSTAR": 0.0013255, "MEAN_MOTION_DOT": 4.475e-05, "MEAN_MOTION_DDOT": 0}, "tle": {"line1": "1 33986U 93036FV  25344.23885633  .00004475  00000+0  13255-2 0  9993", "line2": "2 33986  74.0369 307.3176 0040333  20.5739 103.4184 14.43184431879925"}}, "geometry": {"type": "Point", "coordinates": [-48.2737284842529, 19.40621000658923]}}, {"type": "Feature", "properties": {"norad_id": 33990, "name": "COSMOS 2251 DEB", "group": "cosmos-2251-debris", "lat": -56.27972496843702, "lon": -96.7700998333248, "alt_km": 779.0224106659671, "timestamp": "2025-12-10T23:33:13.211415+00:00", "meta": {"OBJECT_NAME": "COSMOS 2251 DEB", "OBJECT_ID": "1993-036FZ", "EPOCH": "2025-12-10T14:02:58.769952", "MEAN_MOTION": 13.49982459, "ECCENTRICITY": 0.04075632, "INCLINATION": 73.929, "RA_OF_ASC_NODE": 289.4532, "ARG_OF_PERICENTER": 310.1506, "MEAN_ANOMALY": 226.8621, "EPHEMERIS_TYPE": 0, "CLASSIFICATION_TYPE": "U", "NORAD_CAT_ID": 33990, "ELEMENT_SET_NO": 999, "REV_AT_EPOCH": 82700, "BSTAR": 0.0022184516, "MEAN_MOTION_DOT": 2.34e-05, "MEAN_MOTION_DDOT": 0}, "tle": {"line1": "1 33990U 93036FZ  25344.58540243  .00002340  00000+0  22185-2 0  9992", "line2": "2 33990  73.9290 289.4532 0407563 310.1506 226.8621 13.49982459827008"}}, "geometry": {"type": "Point", "coordinates": [-96.7700998333248, -56.27972496843702]}}, {"type": "Feature", "properties": {"norad_id": 33992, "name": "COSMOS 2251 DEB", "group": "cosmos-2251-debris", "lat": 74.0142730025952, "lon": 71.27275560074969, "alt_km": 629.9223633454139, "timestamp": "2025-12-10T23:33:13.211424+00:00", "meta": {"OBJECT_NAME": "COSMOS 2251 DEB", "OBJECT_ID": "1993-036GB", "EPOCH": "2025-12-10T10:43:37.597152", "MEAN_MOTION": 14.66182756, "ECCENTRICITY": 0.00516283, "INCLINATION": 74.0244, "RA_OF_ASC_NODE": 342.1587, "ARG_OF_PERICENTER": 100.7471, "MEAN_ANOMALY": 49.6374, "EPHEMERIS_TYPE": 0, "CLASSIFICATION_TYPE": "U", "NORAD_CAT_ID": 33992, "ELEMENT_SET_NO": 999, "REV_AT_EPOCH": 89091, "BSTAR": 0.0010840463, "MEAN_MOTION_DOT": 6.058e-05, "MEAN_MOTION_DDOT": 0}, "tle": {"line1": "1 33992U 93036GB  25344.44696293  .00006058  00000+0  10840-2 0  9991", "line2": "2 33992  74.0244 342.1587 0051628 100.7471  49.6374 14.66182756890917"}}, "geometry": {"type": "Point", "coordinates": [71.27275560074969, 74.0142730025952]}}, {"type": "Feature", "properties": {"norad_id": 33994, "name": "COSMOS 2251 DEB", "group": "cosmos-2251-debris", "lat": 18.37852057701822, "lon": 8.208771146502482, "alt_km": 770.8666227184322, "timestamp": "2025-12-10T23:33:13.211433+00:00", "meta": {"OBJECT_NAME": "COSMOS 2251 DEB", "OBJECT_ID": "1993-036GD", "EPOCH": "2025-12-10T08:37:26.700384", "MEAN_MOTION": 14.41212472, "ECCENTRICITY": 0.00235791, "INCLINATION": 74.042, "RA_OF_ASC_NODE": 194.8147, "ARG_OF_PERICENTER": 329.5571, "MEAN_ANOMALY": 205.0501, "EPHEMERIS_TYPE": 0, "CLASSIFICATION_TYPE": "U", "NORAD_CAT_ID": 33994, "ELEMENT_SET_NO": 999, "REV_AT_EPOCH": 88385, "BSTAR": 0.00013400992, "MEAN_MOTION_DOT": 4.07e-06, "MEAN_MOTION_DDOT": 0}, "tle": {"line1": "1 33994U 93036GD  25344.35933681  .00000407  00000+0  13401-3 0  9997", "line2": "2 33994  74.0420 194.8147 0023579 329.5571 205.0501 14.41212472883852"}}, "geometry": {"type": "Point", "coordinates": [8.208771146502482, 18.37852057701822]}}, {"type": "Feature", "properties": {"norad_id": 33995, "name": "COSMOS 2251 DEB", "group": "cosmos-2251-debris", "lat": -72.19332608890642, "lon": 59.73051205984414, "alt_km": 816.0341283960006, "timestamp": "2025-12-10T23:33:13.211442+00:00", "meta": {"OBJECT_NAME": "COSMOS 2251 DEB", "OBJECT_ID": "1993-036GE", "EPOCH": "2025-12-10T15:34:19.991136", "MEAN_MOTION": 14.34754442, "ECCENTRICITY": 0.0060286, "INCLINATION": 74.0613, "RA_OF_ASC_NODE": 123.1768, "ARG_OF_PERICENTER": 138.1642, "MEAN_ANOMALY": 222.4143, "EPHEMERIS_TYPE": 0, "CLASSIFICATION_TYPE": "U", "NORAD_CAT_ID": 33995, "ELEMENT_SET_NO": 999, "REV_AT_EPOCH": 87489, "BSTAR": 0.001655523, "MEAN_MOTION_DOT": 4.767e-05, "MEAN_MOTION_DDOT": 0}, "tle": {"line1": "1 33995U 93036GE  25344.64884249  .00004767  00000+0  16555-2 0  9990", "line2": "2 33995  74.0613 123.1768 0060286 138.1642 222.4143 14.34754442874899"}}, "geometry": {"type": "Point", "coordinates": [59.73051205984414, -72.19332608890642]}}, {"type": "Feature", "properties": {"norad_id": 33999, "name": "COSMOS 2251 DEB", "group": "cosmos-2251-debris", "lat": 48.96397114901722, "lon": 34.928049885982716, "alt_km": 583.0273257470162, "timestamp": "2025-12-10T23:33:13.211451+00:00", "meta": {"OBJECT_NAME": "COSMOS 2251 DEB", "OBJECT_ID": "1993-036GJ", "EPOCH": "2025-12-10T10:01:47.061120", "MEAN_MOTION": 14.83276857, "ECCENTRICITY": 0.00445447, "INCLINATION": 73.9185, "RA_OF_ASC_NODE": 235.4073, "ARG_OF_PERICENTER": 131.7381, "MEAN_ANOMALY": 228.7619, "EPHEMERIS_TYPE": 0, "CLASSIFICATION_TYPE": "U", "NORAD_CAT_ID": 33999, "ELEMENT_SET_NO": 999, "REV_AT_EPOCH": 89216, "BSTAR": 0.0020700075, "MEAN_MOTION_DOT": 0.00017243, "MEAN_MOTION_DDOT": 0}, "tle": {"line1": "1 33999U 93036GJ  25344.41790580  .00017243  00000+0  20700-2 0  9993", "line2": "2 33999  73.9185 235.4073 0044544 131.7381 228.7619 14.83276857892169"}}, "geometry": {"type": "Point", "coordinates": [34.928049885982716, 48.96397114901722]}}]}